[
    {
        "Altitude(m)": 605459.016406131,
        "Argument of Periapsis(deg)": 0.0,
        "Eccentricity": 0.0,
        "Inclination(deg)": 60.0,
        "Latitude(deg)": 27.988173766617635,
        "Longitude(deg)": -27.201464050412785,
        "Mean Anomaly(deg)": 32.7273,
        "RAAN(deg)": 55.00000000000001,
        "Satellite Name": "Test1 244",
        "Satellite Number": 244,
        "Semi-Major Axis(m)": 6980739.136638005,
        "Time(s)": 0
    },
    {
        "Altitude(m)": 605535.8074574986,
        "Argument of Periapsis(deg)": 0.00010418945913296404,
        "Eccentricity": 0.0,
        "Inclination(deg)": 60.0,
        "Latitude(deg)": 28.501303857929656,
        "Longitude(deg)": -26.844520166988758,
        "Mean Anomaly(deg)": 33.347406145461825,
        "RAAN(deg)": 54.999579950860266,
        "Satellite Name": "Test1 244",
        "Satellite Number": 244,
        "Semi-Major Axis(m)": 6980739.136638005,
        "Time(s)": 10
    }
]